{"type":"FeatureCollection","crs":{"type":"name","properties":{"name":"EPSG:4326"}},"features":[{"type":"Feature","id":1,"geometry":{"type":"Point","coordinates":[-6.24045567858656,32.570310677396]},"properties":{"OBJECTID":1,"objectid_1":0,"nom_barrag":"Kasbat Tadla","nom_oued":"Oum Er Rbia","capacite_i":0.10000000149,"hauteur":12,"annee_mise":1931,"id_pays":248}},{"type":"Feature","id":2,"geometry":{"type":"Point","coordinates":[-8.10678498723723,33.1427663421931]},"properties":{"OBJECTID":2,"objectid_1":0,"nom_barrag":"Sidi Said Maachou","nom_oued":"Oum Er Rbia","capacite_i":2,"hauteur":29,"annee_mise":1929,"id_pays":248}},{"type":"Feature","id":3,"geometry":{"type":"Point","coordinates":[-7.33993661378355,33.507187907596]},"properties":{"OBJECTID":3,"objectid_1":0,"nom_barrag":"Mellah","nom_oued":"Mellah","capacite_i":8.80000019073,"hauteur":33,"annee_mise":1931,"id_pays":248}},{"type":"Feature","id":4,"geometry":{"type":"Point","coordinates":[-5.29096932827173,35.2452421652939]},"properties":{"OBJECTID":4,"objectid_1":0,"nom_barrag":"Ali Thelat","nom_oued":"Lao","capacite_i":30,"hauteur":36,"annee_mise":1935,"id_pays":248}},{"type":"Feature","id":5,"geometry":{"type":"Point","coordinates":[-5.90775396077652,34.041778871298]},"properties":{"OBJECTID":5,"objectid_1":0,"nom_barrag":"El Kansra","nom_oued":"Beht","capacite_i":266,"hauteur":68,"annee_mise":1935,"id_pays":248}},{"type":"Feature","id":6,"geometry":{"type":"Point","coordinates":[-8.13588349992341,31.3550420899207]},"properties":{"OBJECTID":6,"objectid_1":0,"nom_barrag":"Lalla Takerkoust","nom_oued":"N'fis","capacite_i":69,"hauteur":71,"annee_mise":1935,"id_pays":248}},{"type":"Feature","id":7,"geometry":{"type":"Point","coordinates":[-7.92650288789781,32.7254949952979]},"properties":{"OBJECTID":7,"objectid_1":0,"nom_barrag":"Imfout","nom_oued":"Oum Er Rbia","capacite_i":27,"hauteur":50,"annee_mise":1944,"id_pays":248}},{"type":"Feature","id":8,"geometry":{"type":"Point","coordinates":[-8.0634502991918,32.9359950699167]},"properties":{"OBJECTID":8,"objectid_1":0,"nom_barrag":"Daourat","nom_oued":"Oum Er Rbia","capacite_i":9.5,"hauteur":40,"annee_mise":1950,"id_pays":248}},{"type":"Feature","id":9,"geometry":{"type":"Point","coordinates":[-6.8295594357192,32.9961645567491]},"properties":{"OBJECTID":9,"objectid_1":0,"nom_barrag":"Zemrane","nom_oued":"Zemrane","capacite_i":0.600000023842,"hauteur":20,"annee_mise":1950,"id_pays":248}},{"type":"Feature","id":10,"geometry":{"type":"Point","coordinates":[-6.46406485860621,32.106885184204]},"properties":{"OBJECTID":10,"objectid_1":0,"nom_barrag":"Bin El Oiudane","nom_oued":"El  Abid","capacite_i":1384,"hauteur":133,"annee_mise":1953,"id_pays":248}},{"type":"Feature","id":11,"geometry":{"type":"Point","coordinates":[-6.50950011743629,32.1089586880931]},"properties":{"OBJECTID":11,"objectid_1":0,"nom_barrag":"Ait Ourda","nom_oued":"El  Abid","capacite_i":4,"hauteur":43,"annee_mise":1953,"id_pays":248}},{"type":"Feature","id":12,"geometry":{"type":"Point","coordinates":[-2.8116573987698,34.7328400494289]},"properties":{"OBJECTID":12,"objectid_1":0,"nom_barrag":"Mechraa Hammadi","nom_oued":"Moulouya","capacite_i":12,"hauteur":57,"annee_mise":1955,"id_pays":248}},{"type":"Feature","id":13,"geometry":{"type":"Point","coordinates":[-5.40827687707605,35.4458922776067]},"properties":{"OBJECTID":13,"objectid_1":0,"nom_barrag":"Nakhla","nom_oued":"Nakhla","capacite_i":5.69999980927,"hauteur":46,"annee_mise":1961,"id_pays":248}},{"type":"Feature","id":14,"geometry":{"type":"Point","coordinates":[-9.18781589089048,32.3241978265686]},"properties":{"OBJECTID":14,"objectid_1":0,"nom_barrag":"Safi","nom_oued":"Asmine ou Sahir","capacite_i":2,"hauteur":18,"annee_mise":1965,"id_pays":248}},{"type":"Feature","id":15,"geometry":{"type":"Point","coordinates":[-2.93779193644855,34.6630137998471]},"properties":{"OBJECTID":15,"objectid_1":0,"nom_barrag":"Mohammed V","nom_oued":"Moulouya","capacite_i":410,"hauteur":64,"annee_mise":1967,"id_pays":248}},{"type":"Feature","id":16,"geometry":{"type":"Point","coordinates":[-5.49289955896734,35.2989796729737]},"properties":{"OBJECTID":16,"objectid_1":0,"nom_barrag":"Ajras","nom_oued":"Ajras","capacite_i":3,"hauteur":18,"annee_mise":1969,"id_pays":248}},{"type":"Feature","id":17,"geometry":{"type":"Point","coordinates":[-7.2611196789299,31.6454349493636]},"properties":{"OBJECTID":17,"objectid_1":0,"nom_barrag":"Moulay Youssef","nom_oued":"Tessaout","capacite_i":175,"hauteur":100,"annee_mise":1969,"id_pays":248}},{"type":"Feature","id":18,"geometry":{"type":"Point","coordinates":[-4.46068837057169,31.9938560116458]},"properties":{"OBJECTID":18,"objectid_1":0,"nom_barrag":"Hassan Addakhil","nom_oued":"Ziz","capacite_i":347,"hauteur":85,"annee_mise":1971,"id_pays":248}},{"type":"Feature","id":19,"geometry":{"type":"Point","coordinates":[-4.74920592771122,34.1616250929239]},"properties":{"OBJECTID":19,"objectid_1":0,"nom_barrag":"Idriss 1er","nom_oued":"Inaouène","capacite_i":1186,"hauteur":72,"annee_mise":1973,"id_pays":248}},{"type":"Feature","id":20,"geometry":{"type":"Point","coordinates":[-6.74980605120811,33.9379859169167]},"properties":{"OBJECTID":20,"objectid_1":0,"nom_barrag":"Sidi   Med.  Ben  Abdellah","nom_oued":"Bouregreg","capacite_i":486,"hauteur":99,"annee_mise":1974,"id_pays":248}},{"type":"Feature","id":21,"geometry":{"type":"Point","coordinates":[-5.732615691261,35.6408625389752]},"properties":{"OBJECTID":21,"objectid_1":0,"nom_barrag":"Ibn  Batouta","nom_oued":"M'harhar","capacite_i":38.5,"hauteur":30,"annee_mise":1977,"id_pays":248}},{"type":"Feature","id":22,"geometry":{"type":"Point","coordinates":[-5.83927121289599,34.9416268328122]},"properties":{"OBJECTID":22,"objectid_1":0,"nom_barrag":"Oued  El  Makhazine","nom_oued":"Loukkos","capacite_i":773,"hauteur":67,"annee_mise":1979,"id_pays":248}},{"type":"Feature","id":23,"geometry":{"type":"Point","coordinates":[-7.63811131768301,32.4756987381064]},"properties":{"OBJECTID":23,"objectid_1":0,"nom_barrag":"Al  Massira","nom_oued":"Oum  Er Rbia","capacite_i":2760,"hauteur":82,"annee_mise":1979,"id_pays":248}},{"type":"Feature","id":24,"geometry":{"type":"Point","coordinates":[-3.81896181543527,35.0858282072062]},"properties":{"OBJECTID":24,"objectid_1":0,"nom_barrag":"Med. Ben Abdelkrim  Khattabi","nom_oued":"Neckor","capacite_i":33.5999984741,"hauteur":40,"annee_mise":1981,"id_pays":248}},{"type":"Feature","id":25,"geometry":{"type":"Point","coordinates":[-6.0887033858524,35.1547785351015]},"properties":{"OBJECTID":25,"objectid_1":0,"nom_barrag":"Garde  du   Loukkos","nom_oued":"Loukkos","capacite_i":4,"hauteur":9,"annee_mise":1981,"id_pays":248}},{"type":"Feature","id":26,"geometry":{"type":"Point","coordinates":[-7.25757281843067,31.665373245579]},"properties":{"OBJECTID":26,"objectid_1":0,"nom_barrag":"Timi  Noutione","nom_oued":"Tessaout","capacite_i":5.5,"hauteur":45,"annee_mise":1981,"id_pays":248}},{"type":"Feature","id":27,"geometry":{"type":"Point","coordinates":[-7.07814339869873,31.8459246154288]},"properties":{"OBJECTID":27,"objectid_1":0,"nom_barrag":"Sidi  Driss","nom_oued":"Lakhdar","capacite_i":7,"hauteur":42,"annee_mise":1984,"id_pays":248}},{"type":"Feature","id":28,"geometry":{"type":"Point","coordinates":[-5.93088350486971,33.4607174310648]},"properties":{"OBJECTID":28,"objectid_1":0,"nom_barrag":"Ait  Lamrabtya","nom_oued":"Kanaza","capacite_i":0.20000000298,"hauteur":19,"annee_mise":1985,"id_pays":248}},{"type":"Feature","id":29,"geometry":{"type":"Point","coordinates":[-6.60638099138947,33.5083853414105]},"properties":{"OBJECTID":29,"objectid_1":0,"nom_barrag":"Arid","nom_oued":"Arid","capacite_i":0.699999988079,"hauteur":20,"annee_mise":1985,"id_pays":248}},{"type":"Feature","id":30,"geometry":{"type":"Point","coordinates":[-1.73425052913842,33.9778712858313]},"properties":{"OBJECTID":30,"objectid_1":0,"nom_barrag":"Msakhskha","nom_oued":"Msakhskha","capacite_i":2.70000004768,"hauteur":20,"annee_mise":1985,"id_pays":248}},{"type":"Feature","id":31,"geometry":{"type":"Point","coordinates":[-2.15809694991412,34.0389127831986]},"properties":{"OBJECTID":31,"objectid_1":0,"nom_barrag":"SIDI ALI","nom_oued":" ","capacite_i":0,"hauteur":10,"annee_mise":1985,"id_pays":248}},{"type":"Feature","id":32,"geometry":{"type":"Point","coordinates":[-7.9845145656945,33.1237029361417]},"properties":{"OBJECTID":32,"objectid_1":0,"nom_barrag":"Kwacem  Aval","nom_oued":"Chguigua","capacite_i":3,"hauteur":12,"annee_mise":1985,"id_pays":248}},{"type":"Feature","id":33,"geometry":{"type":"Point","coordinates":[-7.62490549289402,31.5951998558888]},"properties":{"OBJECTID":33,"objectid_1":0,"nom_barrag":"Imi  Larbaa","nom_oued":"Tighizrit","capacite_i":0.800000011921,"hauteur":16,"annee_mise":1985,"id_pays":248}},{"type":"Feature","id":34,"geometry":{"type":"Point","coordinates":[-8.20646377078623,31.9076459409076]},"properties":{"OBJECTID":34,"objectid_1":0,"nom_barrag":"N'ZALET AZRI","nom_oued":" ","capacite_i":0,"hauteur":19,"annee_mise":1985,"id_pays":248}},{"type":"Feature","id":35,"geometry":{"type":"Point","coordinates":[-6.82328004543757,31.8143664002893]},"properties":{"OBJECTID":35,"objectid_1":0,"nom_barrag":"Hassan  1","nom_oued":"Lakhdar","capacite_i":262.5,"hauteur":145,"annee_mise":1986,"id_pays":248}},{"type":"Feature","id":36,"geometry":{"type":"Point","coordinates":[-6.56941294674994,32.77864023376]},"properties":{"OBJECTID":36,"objectid_1":0,"nom_barrag":"Bni Smir","nom_oued":"Oued Zem","capacite_i":0.899999976158,"hauteur":16,"annee_mise":1986,"id_pays":248}},{"type":"Feature","id":37,"geometry":{"type":"Point","coordinates":[-8.24540274174296,31.4696466237928]},"properties":{"OBJECTID":37,"objectid_1":0,"nom_barrag":"Agafay","nom_oued":"Arissa","capacite_i":0.5,"hauteur":28,"annee_mise":1986,"id_pays":248}},{"type":"Feature","id":38,"geometry":{"type":"Point","coordinates":[-3.40023840877541,34.821338653756]},"properties":{"OBJECTID":38,"objectid_1":0,"nom_barrag":"Tlet  Boubker","nom_oued":"Irhane","capacite_i":2.79999995232,"hauteur":30,"annee_mise":1986,"id_pays":248}},{"type":"Feature","id":39,"geometry":{"type":"Point","coordinates":[-6.39351057725116,32.6575282406359]},"properties":{"OBJECTID":39,"objectid_1":0,"nom_barrag":"Si  El  Miari","nom_oued":"Takhzrit","capacite_i":1.10000002384,"hauteur":21,"annee_mise":1986,"id_pays":248}},{"type":"Feature","id":40,"geometry":{"type":"Point","coordinates":[-5.09162082184326,33.5191003633912]},"properties":{"OBJECTID":40,"objectid_1":0,"nom_barrag":"Tizguit Aval","nom_oued":"Tizguite","capacite_i":0.10000000149,"hauteur":18,"annee_mise":1986,"id_pays":248}},{"type":"Feature","id":41,"geometry":{"type":"Point","coordinates":[-4.11245786204051,32.7088580896293]},"properties":{"OBJECTID":41,"objectid_1":0,"nom_barrag":"Boukerdane","nom_oued":"Boutaaricht","capacite_i":0.40000000596,"hauteur":22,"annee_mise":1986,"id_pays":248}},{"type":"Feature","id":42,"geometry":{"type":"Point","coordinates":[-4.87902973083726,31.4676378081385]},"properties":{"OBJECTID":42,"objectid_1":0,"nom_barrag":"Akkrouz","nom_oued":"N'oukrouz","capacite_i":0.600000023842,"hauteur":24,"annee_mise":1986,"id_pays":248}},{"type":"Feature","id":43,"geometry":{"type":"Point","coordinates":[-5.09201830060391,31.1547603803874]},"properties":{"OBJECTID":43,"objectid_1":0,"nom_barrag":"Achbarou","nom_oued":"Gaiz","capacite_i":1,"hauteur":20,"annee_mise":1986,"id_pays":248}},{"type":"Feature","id":44,"geometry":{"type":"Point","coordinates":[-4.09705573723232,32.3104485567557]},"properties":{"OBJECTID":44,"objectid_1":0,"nom_barrag":"Boutaaricht","nom_oued":"Boutaaricht","capacite_i":0.699999988079,"hauteur":18,"annee_mise":1986,"id_pays":248}},{"type":"Feature","id":45,"geometry":{"type":"Point","coordinates":[-2.56791152489677,32.7316282061769]},"properties":{"OBJECTID":45,"objectid_1":0,"nom_barrag":"Hammou   Ourzag","nom_oued":"Ham.   Ourzag","capacite_i":1.60000002384,"hauteur":14,"annee_mise":1986,"id_pays":248}},{"type":"Feature","id":46,"geometry":{"type":"Point","coordinates":[-2.9130032672868,33.6047010490144]},"properties":{"OBJECTID":46,"objectid_1":0,"nom_barrag":"Kheng   El  H'da","nom_oued":"Marbouha","capacite_i":3.79999995232,"hauteur":15,"annee_mise":1986,"id_pays":248}},{"type":"Feature","id":47,"geometry":{"type":"Point","coordinates":[-8.83874191900418,31.4638603209972]},"properties":{"OBJECTID":47,"objectid_1":0,"nom_barrag":"Azib Douirani","nom_oued":"Douirani","capacite_i":0.600000023842,"hauteur":15,"annee_mise":1987,"id_pays":248}},{"type":"Feature","id":48,"geometry":{"type":"Point","coordinates":[-9.6237926677972,31.2463650730898]},"properties":{"OBJECTID":48,"objectid_1":0,"nom_barrag":"Imin  Lhad","nom_oued":"Zeddir","capacite_i":0.40000000596,"hauteur":23,"annee_mise":1987,"id_pays":248}},{"type":"Feature","id":49,"geometry":{"type":"Point","coordinates":[-2.86394002101497,34.2905160319895]},"properties":{"OBJECTID":49,"objectid_1":0,"nom_barrag":"Batmat  Rma","nom_oued":"Ain Hammou","capacite_i":0.800000011921,"hauteur":20,"annee_mise":1987,"id_pays":248}},{"type":"Feature","id":50,"geometry":{"type":"Point","coordinates":[-5.7749505148542,33.105596921361]},"properties":{"OBJECTID":50,"objectid_1":0,"nom_barrag":"Ain Tourtoute","nom_oued":"Behaligarane","capacite_i":0.899999976158,"hauteur":21,"annee_mise":1987,"id_pays":248}},{"type":"Feature","id":51,"geometry":{"type":"Point","coordinates":[-6.9676694959503,33.7336007591679]},"properties":{"OBJECTID":51,"objectid_1":0,"nom_barrag":"Ruidat  Amont","nom_oued":"Rouidat","capacite_i":2.90000009537,"hauteur":24,"annee_mise":1987,"id_pays":248}},{"type":"Feature","id":52,"geometry":{"type":"Point","coordinates":[-6.82349918413985,33.821256467612]},"properties":{"OBJECTID":52,"objectid_1":0,"nom_barrag":"Ain Koreima","nom_oued":"Akrech","capacite_i":1.29999995232,"hauteur":26,"annee_mise":1987,"id_pays":248}},{"type":"Feature","id":53,"geometry":{"type":"Point","coordinates":[-6.38531444210764,32.8089623316465]},"properties":{"OBJECTID":53,"objectid_1":0,"nom_barrag":"Mouilah","nom_oued":"Mouilah","capacite_i":0.5,"hauteur":16,"annee_mise":1987,"id_pays":248}},{"type":"Feature","id":54,"geometry":{"type":"Point","coordinates":[-5.89645656661708,35.7520337220787]},"properties":{"OBJECTID":54,"objectid_1":0,"nom_barrag":"Boukhalef  1","nom_oued":"Msaber","capacite_i":1.10000002384,"hauteur":20,"annee_mise":1989,"id_pays":248}},{"type":"Feature","id":55,"geometry":{"type":"Point","coordinates":[-6.54811158857876,32.9889137223905]},"properties":{"OBJECTID":55,"objectid_1":0,"nom_barrag":"Touiltest","nom_oued":"Touiltest","capacite_i":1,"hauteur":17,"annee_mise":1989,"id_pays":248}},{"type":"Feature","id":56,"geometry":{"type":"Point","coordinates":[-5.08193360984808,32.9118423329575]},"properties":{"OBJECTID":56,"objectid_1":0,"nom_barrag":"Itzar","nom_oued":"Tifitoucht","capacite_i":0.699999988079,"hauteur":30,"annee_mise":1989,"id_pays":248}},{"type":"Feature","id":57,"geometry":{"type":"Point","coordinates":[-4.67826999296562,33.9307934080895]},"properties":{"OBJECTID":57,"objectid_1":0,"nom_barrag":"Allal   Al  Fassi","nom_oued":"Sebou","capacite_i":81.5,"hauteur":61,"annee_mise":1990,"id_pays":248}},{"type":"Feature","id":58,"geometry":{"type":"Point","coordinates":[-3.23763642957738,34.1102952610177]},"properties":{"OBJECTID":58,"objectid_1":0,"nom_barrag":"Ras  Bel  Firane","nom_oued":"Bel  Firane","capacite_i":0.300000011921,"hauteur":17,"annee_mise":1990,"id_pays":248}},{"type":"Feature","id":59,"geometry":{"type":"Point","coordinates":[-7.11934705502239,33.0892735823101]},"properties":{"OBJECTID":59,"objectid_1":0,"nom_barrag":"Oued  Aricha","nom_oued":"Aricha","capacite_i":1.79999995232,"hauteur":30,"annee_mise":1990,"id_pays":248}},{"type":"Feature","id":60,"geometry":{"type":"Point","coordinates":[-5.79721199014108,35.6689840587675]},"properties":{"OBJECTID":60,"objectid_1":0,"nom_barrag":"Saboun","nom_oued":"Saboun","capacite_i":1.10000002384,"hauteur":15,"annee_mise":1991,"id_pays":248}},{"type":"Feature","id":61,"geometry":{"type":"Point","coordinates":[-5.82604510120029,35.6947157066647]},"properties":{"OBJECTID":61,"objectid_1":0,"nom_barrag":"Sghir","nom_oued":"Sghir","capacite_i":2.29999995232,"hauteur":15,"annee_mise":1991,"id_pays":248}},{"type":"Feature","id":62,"geometry":{"type":"Point","coordinates":[-5.3835200457134,35.6842368547472]},"properties":{"OBJECTID":62,"objectid_1":0,"nom_barrag":"Smir","nom_oued":"Smir","capacite_i":43,"hauteur":45,"annee_mise":1991,"id_pays":248}},{"type":"Feature","id":63,"geometry":{"type":"Point","coordinates":[-6.41284543826617,34.4882713363533]},"properties":{"OBJECTID":63,"objectid_1":0,"nom_barrag":"Garde  de Sebou","nom_oued":"Sebou","capacite_i":40,"hauteur":18,"annee_mise":1991,"id_pays":248}},{"type":"Feature","id":64,"geometry":{"type":"Point","coordinates":[-4.95545401039408,34.0190988955977]},"properties":{"OBJECTID":64,"objectid_1":0,"nom_barrag":"Blad  El  Gaada","nom_oued":"Boufekrane","capacite_i":2.90000009537,"hauteur":30,"annee_mise":1991,"id_pays":248}},{"type":"Feature","id":65,"geometry":{"type":"Point","coordinates":[-5.08776310977953,33.5116708130577]},"properties":{"OBJECTID":65,"objectid_1":0,"nom_barrag":"Tizguit  Amont","nom_oued":"Tizguite","capacite_i":0.300000011921,"hauteur":15,"annee_mise":1991,"id_pays":248}},{"type":"Feature","id":66,"geometry":{"type":"Point","coordinates":[-5.01972590132914,34.4591761790376]},"properties":{"OBJECTID":66,"objectid_1":0,"nom_barrag":"Jorf  El  Ghorab","nom_oued":"Jorf  El  Ghorab","capacite_i":0.899999976158,"hauteur":29,"annee_mise":1992,"id_pays":248}},{"type":"Feature","id":67,"geometry":{"type":"Point","coordinates":[-4.88784798729461,34.4645186367259]},"properties":{"OBJECTID":67,"objectid_1":0,"nom_barrag":"Essaf","nom_oued":"Essaf","capacite_i":1,"hauteur":29,"annee_mise":1992,"id_pays":248}},{"type":"Feature","id":68,"geometry":{"type":"Point","coordinates":[-3.51142828158976,31.911291107199]},"properties":{"OBJECTID":68,"objectid_1":0,"nom_barrag":"Douiss","nom_oued":"Douiss","capacite_i":0.899999976158,"hauteur":21,"annee_mise":1992,"id_pays":248}},{"type":"Feature","id":69,"geometry":{"type":"Point","coordinates":[-4.31723329587976,34.9320628306353]},"properties":{"OBJECTID":69,"objectid_1":0,"nom_barrag":"Joumouaa","nom_oued":"Joumouaa","capacite_i":6.5,"hauteur":57,"annee_mise":1992,"id_pays":248}},{"type":"Feature","id":70,"geometry":{"type":"Point","coordinates":[-4.970819136194,33.9673508861346]},"properties":{"OBJECTID":70,"objectid_1":0,"nom_barrag":"Mahraz","nom_oued":"El  Mahraz","capacite_i":0.600000023842,"hauteur":17,"annee_mise":1992,"id_pays":248}},{"type":"Feature","id":71,"geometry":{"type":"Point","coordinates":[-4.66951117809822,34.5647730817125]},"properties":{"OBJECTID":71,"objectid_1":0,"nom_barrag":"Sahla","nom_oued":"Sahla","capacite_i":62,"hauteur":55,"annee_mise":1994,"id_pays":248}},{"type":"Feature","id":72,"geometry":{"type":"Point","coordinates":[-4.88713984762569,33.8011495071442]},"properties":{"OBJECTID":72,"objectid_1":0,"nom_barrag":"Aggay","nom_oued":"Aggay","capacite_i":1.20000004768,"hauteur":40,"annee_mise":1994,"id_pays":248}},{"type":"Feature","id":73,"geometry":{"type":"Point","coordinates":[-5.83623644075897,35.5313286831724]},"properties":{"OBJECTID":73,"objectid_1":0,"nom_barrag":"Neuf   Avril  1947","nom_oued":"Hachef","capacite_i":300,"hauteur":52,"annee_mise":1995,"id_pays":248}},{"type":"Feature","id":74,"geometry":{"type":"Point","coordinates":[-4.96866291176383,33.6508375218343]},"properties":{"OBJECTID":74,"objectid_1":0,"nom_barrag":"Injil","nom_oued":"Taghoucht","capacite_i":12,"hauteur":36,"annee_mise":1995,"id_pays":248}},{"type":"Feature","id":75,"geometry":{"type":"Point","coordinates":[-2.8762793454153,35.0173984024145]},"properties":{"OBJECTID":75,"objectid_1":0,"nom_barrag":"Arabat","nom_oued":"Arabat","capacite_i":1.70000004768,"hauteur":17,"annee_mise":1995,"id_pays":248}},{"type":"Feature","id":76,"geometry":{"type":"Point","coordinates":[-5.20008054268271,34.5977646300338]},"properties":{"OBJECTID":76,"objectid_1":0,"nom_barrag":"Al  Wahda","nom_oued":"Ouergha","capacite_i":3730,"hauteur":88,"annee_mise":1996,"id_pays":248}},{"type":"Feature","id":77,"geometry":{"type":"Point","coordinates":[-5.31999837732309,34.1050684471513]},"properties":{"OBJECTID":77,"objectid_1":0,"nom_barrag":"Sidi  Chahed","nom_oued":"Mikkès","capacite_i":170,"hauteur":51,"annee_mise":1996,"id_pays":248}},{"type":"Feature","id":78,"geometry":{"type":"Point","coordinates":[-4.82369413867337,34.460506492181]},"properties":{"OBJECTID":78,"objectid_1":0,"nom_barrag":"Gharbia","nom_oued":"Ouergha","capacite_i":0.699999988079,"hauteur":22,"annee_mise":1997,"id_pays":248}},{"type":"Feature","id":79,"geometry":{"type":"Point","coordinates":[-2.28311039273029,34.8988143972668]},"properties":{"OBJECTID":79,"objectid_1":0,"nom_barrag":"Ben  Yakhlef","nom_oued":"Ben  Yakhlef","capacite_i":0.300000011921,"hauteur":18,"annee_mise":1997,"id_pays":248}},{"type":"Feature","id":80,"geometry":{"type":"Point","coordinates":[-2.27355678401818,34.900347050676]},"properties":{"OBJECTID":80,"objectid_1":0,"nom_barrag":"MENZEL","nom_oued":"El Manzel","capacite_i":0,"hauteur":18,"annee_mise":1998,"id_pays":248}},{"type":"Feature","id":81,"geometry":{"type":"Point","coordinates":[-2.63954632280439,34.2066025536651]},"properties":{"OBJECTID":81,"objectid_1":0,"nom_barrag":"Barrage sur Oued Za (Ex Hassan II)","nom_oued":"Oued Za","capacite_i":275,"hauteur":83,"annee_mise":1998,"id_pays":248}},{"type":"Feature","id":82,"geometry":{"type":"Point","coordinates":[-4.57347201562084,34.6102337490884]},"properties":{"OBJECTID":82,"objectid_1":0,"nom_barrag":"Bouhouda","nom_oued":"Sra","capacite_i":55.5,"hauteur":55,"annee_mise":1998,"id_pays":248}},{"type":"Feature","id":83,"geometry":{"type":"Point","coordinates":[-4.33351814664496,34.0151336138254]},"properties":{"OBJECTID":83,"objectid_1":0,"nom_barrag":"Bab  Louta","nom_oued":"Laoutar","capacite_i":37,"hauteur":54,"annee_mise":1999,"id_pays":248}},{"type":"Feature","id":84,"geometry":{"type":"Point","coordinates":[-4.19038446267263,34.6329796630811]},"properties":{"OBJECTID":84,"objectid_1":0,"nom_barrag":"Asfalou","nom_oued":"Asfalou","capacite_i":317,"hauteur":112,"annee_mise":1999,"id_pays":248}},{"type":"Feature","id":85,"geometry":{"type":"Point","coordinates":[-6.51261501916764,33.2988798045595]},"properties":{"OBJECTID":85,"objectid_1":0,"nom_barrag":"Bouknadel","nom_oued":"Serou","capacite_i":1,"hauteur":19,"annee_mise":1998,"id_pays":248}},{"type":"Feature","id":86,"geometry":{"type":"Point","coordinates":[-5.88861366179088,32.6930302392543]},"properties":{"OBJECTID":86,"objectid_1":0,"nom_barrag":"Ahmed  Al  Hansali","nom_oued":"Oum Er Rbia","capacite_i":740,"hauteur":101,"annee_mise":2001,"id_pays":248}},{"type":"Feature","id":87,"geometry":{"type":"Point","coordinates":[-6.68859619805596,33.326017341927]},"properties":{"OBJECTID":87,"objectid_1":0,"nom_barrag":"HAD LAGHOUALEM","nom_oued":"Bridila","capacite_i":0,"hauteur":19,"annee_mise":2002,"id_pays":248}},{"type":"Feature","id":88,"geometry":{"type":"Point","coordinates":[-8.45053280794258,31.9651540730022]},"properties":{"OBJECTID":88,"objectid_1":0,"nom_barrag":"Ouled  Abbass","nom_oued":"Ouled  Abbass","capacite_i":0.899999976158,"hauteur":15,"annee_mise":2001,"id_pays":248}},{"type":"Feature","id":89,"geometry":{"type":"Point","coordinates":[-6.18624535863626,32.6226883238073]},"properties":{"OBJECTID":89,"objectid_1":0,"nom_barrag":"Ait  Messaoud","nom_oued":"Oum Er Rbia","capacite_i":13.1999998093,"hauteur":34,"annee_mise":2003,"id_pays":248}},{"type":"Feature","id":90,"geometry":{"type":"Point","coordinates":[-6.26163732800012,32.7838165479955]},"properties":{"OBJECTID":90,"objectid_1":0,"nom_barrag":"BOUBAGRA","nom_oued":" ","capacite_i":0,"hauteur":21,"annee_mise":2002,"id_pays":248}},{"type":"Feature","id":91,"geometry":{"type":"Point","coordinates":[-8.61108044240831,31.8217151591275]},"properties":{"OBJECTID":91,"objectid_1":0,"nom_barrag":"DRAA LAGRAGRA","nom_oued":"Jmamla","capacite_i":0,"hauteur":24,"annee_mise":2003,"id_pays":248}},{"type":"Feature","id":92,"geometry":{"type":"Point","coordinates":[-3.3152948092079,35.1043701089935]},"properties":{"OBJECTID":92,"objectid_1":0,"nom_barrag":"BAAJ","nom_oued":" ","capacite_i":0,"hauteur":16.5,"annee_mise":2003,"id_pays":248}},{"type":"Feature","id":93,"geometry":{"type":"Point","coordinates":[-1.98781173422401,32.7406465860713]},"properties":{"OBJECTID":93,"objectid_1":0,"nom_barrag":"SEHB EL  KHYAT","nom_oued":" ","capacite_i":0,"hauteur":17,"annee_mise":2003,"id_pays":248}},{"type":"Feature","id":94,"geometry":{"type":"Point","coordinates":[-1.69467970890128,32.4539274427974]},"properties":{"OBJECTID":94,"objectid_1":0,"nom_barrag":"ROKNET ENNAM","nom_oued":" ","capacite_i":0,"hauteur":18,"annee_mise":2003,"id_pays":248}},{"type":"Feature","id":95,"geometry":{"type":"Point","coordinates":[-2.24205680627642,33.3494326770765]},"properties":{"OBJECTID":95,"objectid_1":0,"nom_barrag":"OUED ENNAMOUS","nom_oued":" ","capacite_i":0,"hauteur":18,"annee_mise":2003,"id_pays":248}},{"type":"Feature","id":96,"geometry":{"type":"Point","coordinates":[-4.76785793799326,32.7920707964303]},"properties":{"OBJECTID":96,"objectid_1":0,"nom_barrag":"Hassan II (Ex Sidi Said)","nom_oued":"Moulouya","capacite_i":400,"hauteur":124,"annee_mise":2003,"id_pays":248}},{"type":"Feature","id":97,"geometry":{"type":"Point","coordinates":[-5.50327140325248,35.6999029377705]},"properties":{"OBJECTID":97,"objectid_1":0,"nom_barrag":"MOULAY HASSAN BELMAHDI","nom_oued":"Raouz","capacite_i":0,"hauteur":49,"annee_mise":2005,"id_pays":248}},{"type":"Feature","id":98,"geometry":{"type":"Point","coordinates":[-9.6418569648269,31.0946805370773]},"properties":{"OBJECTID":98,"objectid_1":0,"nom_barrag":"S.M.B SLIMANE JAZOULI","nom_oued":" ","capacite_i":0,"hauteur":60,"annee_mise":2005,"id_pays":248}},{"type":"Feature","id":99,"geometry":{"type":"Point","coordinates":[-7.09979825068854,33.2052425010407]},"properties":{"OBJECTID":99,"objectid_1":0,"nom_barrag":"TAMASNA","nom_oued":"Zamrine","capacite_i":0,"hauteur":66,"annee_mise":2005,"id_pays":248}},{"type":"Feature","id":100,"geometry":{"type":"Point","coordinates":[-7.43466856580153,33.5744458633861]},"properties":{"OBJECTID":100,"objectid_1":0,"nom_barrag":"HASSAR","nom_oued":" ","capacite_i":0,"hauteur":15,"annee_mise":2005,"id_pays":248}},{"type":"Feature","id":101,"geometry":{"type":"Point","coordinates":[-5.48467785340006,35.8755654706701]},"properties":{"OBJECTID":101,"objectid_1":0,"nom_barrag":"RMEL","nom_oued":"Rmel","capacite_i":0,"hauteur":65,"annee_mise":0,"id_pays":248}},{"type":"Feature","id":102,"geometry":{"type":"Point","coordinates":[-8.08831252570235,31.1898838876315]},"properties":{"OBJECTID":102,"objectid_1":0,"nom_barrag":"WIRGANE","nom_oued":"Wirgane","capacite_i":0,"hauteur":70,"annee_mise":0,"id_pays":248}},{"type":"Feature","id":103,"geometry":{"type":"Point","coordinates":[-7.34560397134607,33.1054846176212]},"properties":{"OBJECTID":103,"objectid_1":0,"nom_barrag":"AL HIMER","nom_oued":" ","capacite_i":0,"hauteur":39,"annee_mise":0,"id_pays":248}},{"type":"Feature","id":104,"geometry":{"type":"Point","coordinates":[-7.52247892795998,33.0215491113026]},"properties":{"OBJECTID":104,"objectid_1":0,"nom_barrag":"KOUDIAT EL GARNE","nom_oued":"Tamedroust","capacite_i":0,"hauteur":55,"annee_mise":0,"id_pays":248}},{"type":"Feature","id":105,"geometry":{"type":"Point","coordinates":[-7.46400770379233,33.1066211628366]},"properties":{"OBJECTID":105,"objectid_1":0,"nom_barrag":"MAZER","nom_oued":"Mazer","capacite_i":0,"hauteur":39,"annee_mise":0,"id_pays":248}},{"type":"Feature","id":106,"geometry":{"type":"Point","coordinates":[-8.4771159573354,31.1803756254349]},"properties":{"OBJECTID":106,"objectid_1":0,"nom_barrag":"TASKOURT","nom_oued":"Al Mal","capacite_i":0,"hauteur":75,"annee_mise":0,"id_pays":248}},{"type":"Feature","id":107,"geometry":{"type":"Point","coordinates":[-7.11166104861832,32.2989640415574]},"properties":{"OBJECTID":107,"objectid_1":0,"nom_barrag":"SEHB EL MERGA","nom_oued":"Sehb El Merga","capacite_i":0,"hauteur":40,"annee_mise":0,"id_pays":248}},{"type":"Feature","id":108,"geometry":{"type":"Point","coordinates":[-6.91077085329209,33.7686116074399]},"properties":{"OBJECTID":108,"objectid_1":0,"nom_barrag":"SIDI YAHIA","nom_oued":"Khellata","capacite_i":0,"hauteur":30,"annee_mise":0,"id_pays":248}},{"type":"Feature","id":109,"geometry":{"type":"Point","coordinates":[-6.34669837273157,32.3050153835533]},"properties":{"OBJECTID":109,"objectid_1":0,"nom_barrag":"EL HANDAK","nom_oued":"El Handak","capacite_i":0,"hauteur":27,"annee_mise":0,"id_pays":248}},{"type":"Feature","id":110,"geometry":{"type":"Point","coordinates":[-1.34565632298074,32.3361751801406]},"properties":{"OBJECTID":110,"objectid_1":0,"nom_barrag":"SFEISSIF","nom_oued":"Safsaf","capacite_i":0,"hauteur":28,"annee_mise":0,"id_pays":248}},{"type":"Feature","id":111,"geometry":{"type":"Point","coordinates":[-4.76784038682422,32.5854320122777]},"properties":{"OBJECTID":111,"objectid_1":0,"nom_barrag":"TATIOUINE","nom_oued":"Tatiouine","capacite_i":0,"hauteur":18,"annee_mise":0,"id_pays":248}},{"type":"Feature","id":112,"geometry":{"type":"Point","coordinates":[-6.31649793063485,30.8092766819735]},"properties":{"OBJECTID":112,"objectid_1":0,"nom_barrag":"TAKHZIRT","nom_oued":"Takhzirt","capacite_i":0,"hauteur":22,"annee_mise":0,"id_pays":248}},{"type":"Feature","id":113,"geometry":{"type":"Point","coordinates":[-6.68981759880296,33.1573604819009]},"properties":{"OBJECTID":113,"objectid_1":0,"nom_barrag":"CHBIKA","nom_oued":"Chbika","capacite_i":0,"hauteur":23,"annee_mise":0,"id_pays":248}},{"type":"Feature","id":114,"geometry":{"type":"Point","coordinates":[-8.81678510704688,32.0024887199786]},"properties":{"OBJECTID":114,"objectid_1":0,"nom_barrag":"Bouhouta","nom_oued":"Bouhouta","capacite_i":0.899999976158,"hauteur":19,"annee_mise":2001,"id_pays":248}},{"type":"Feature","id":115,"geometry":{"type":"Point","coordinates":[-6.75990542519503,30.9126728617633]},"properties":{"OBJECTID":115,"objectid_1":0,"nom_barrag":"Mansour Eddahbi","nom_oued":"Draa","capacite_i":529,"hauteur":70,"annee_mise":1972,"id_pays":248}},{"type":"Feature","id":116,"geometry":{"type":"Point","coordinates":[-9.49465435311572,29.8459949464098]},"properties":{"OBJECTID":116,"objectid_1":0,"nom_barrag":"Youssef Ben Tachfine","nom_oued":"Massa","capacite_i":303,"hauteur":85,"annee_mise":1972,"id_pays":248}},{"type":"Feature","id":117,"geometry":{"type":"Point","coordinates":[-9.19941430612516,30.6748489588126]},"properties":{"OBJECTID":117,"objectid_1":0,"nom_barrag":"Abdelmoumen","nom_oued":"Issen","capacite_i":216,"hauteur":94,"annee_mise":1981,"id_pays":248}},{"type":"Feature","id":118,"geometry":{"type":"Point","coordinates":[-9.17153901980976,30.1902630599924]},"properties":{"OBJECTID":118,"objectid_1":0,"nom_barrag":"Sfa","nom_oued":"Chtouka Ait Baha","capacite_i":0.600000023842,"hauteur":16,"annee_mise":1985,"id_pays":248}},{"type":"Feature","id":119,"geometry":{"type":"Point","coordinates":[-9.28540587937766,30.5694660471206]},"properties":{"OBJECTID":119,"objectid_1":0,"nom_barrag":"Dkhila","nom_oued":"Issen","capacite_i":0.699999988079,"hauteur":32,"annee_mise":1986,"id_pays":248}},{"type":"Feature","id":120,"geometry":{"type":"Point","coordinates":[-9.3936391023625,30.4826618689502]},"properties":{"OBJECTID":120,"objectid_1":0,"nom_barrag":"Assif  Taguenza","nom_oued":"Taguenza","capacite_i":0.40000000596,"hauteur":24,"annee_mise":1986,"id_pays":248}},{"type":"Feature","id":121,"geometry":{"type":"Point","coordinates":[-5.9078214207218,31.6977374223443]},"properties":{"OBJECTID":121,"objectid_1":0,"nom_barrag":"Akka  N'oussikis","nom_oued":"N'oussikiss","capacite_i":1,"hauteur":42,"annee_mise":1986,"id_pays":248}},{"type":"Feature","id":122,"geometry":{"type":"Point","coordinates":[-8.13825697537897,30.6932576566157]},"properties":{"OBJECTID":122,"objectid_1":0,"nom_barrag":"Aoulouz","nom_oued":"Souss","capacite_i":110,"hauteur":79,"annee_mise":1991,"id_pays":248}},{"type":"Feature","id":123,"geometry":{"type":"Point","coordinates":[-9.71308505333241,29.2233009137063]},"properties":{"OBJECTID":123,"objectid_1":0,"nom_barrag":"Imaouene","nom_oued":"Imaouene","capacite_i":0.20000000298,"hauteur":23,"annee_mise":1992,"id_pays":248}},{"type":"Feature","id":124,"geometry":{"type":"Point","coordinates":[-9.72795888759242,29.2290874853993]},"properties":{"OBJECTID":124,"objectid_1":0,"nom_barrag":"Agherghis","nom_oued":"Assif Neffella","capacite_i":0.300000011921,"hauteur":24,"annee_mise":1992,"id_pays":248}},{"type":"Feature","id":125,"geometry":{"type":"Point","coordinates":[-8.5321943361995,30.6672954908943]},"properties":{"OBJECTID":125,"objectid_1":0,"nom_barrag":"Imin  El   Kheng","nom_oued":"Berhil","capacite_i":12,"hauteur":39,"annee_mise":1993,"id_pays":248}},{"type":"Feature","id":126,"geometry":{"type":"Point","coordinates":[-7.98025531083374,30.7347009184128]},"properties":{"OBJECTID":126,"objectid_1":0,"nom_barrag":"Mokhtar  Soussi","nom_oued":"Choukoukane","capacite_i":50,"hauteur":60,"annee_mise":2001,"id_pays":248}},{"type":"Feature","id":127,"geometry":{"type":"Point","coordinates":[-9.68562704525175,30.7619788957097]},"properties":{"OBJECTID":127,"objectid_1":0,"nom_barrag":"Moulay   Abdellah","nom_oued":"Tamri","capacite_i":110,"hauteur":70,"annee_mise":2002,"id_pays":248}},{"type":"Feature","id":128,"geometry":{"type":"Point","coordinates":[-9.12830649924541,30.0538154828984]},"properties":{"OBJECTID":128,"objectid_1":0,"nom_barrag":"AHL SOUSS","nom_oued":" ","capacite_i":0,"hauteur":49,"annee_mise":2004,"id_pays":248}},{"type":"Feature","id":129,"geometry":{"type":"Point","coordinates":[-9.21738035581859,28.4140789585772]},"properties":{"OBJECTID":129,"objectid_1":0,"nom_barrag":"TOUIZGUI RAMZ","nom_oued":" ","capacite_i":0,"hauteur":18,"annee_mise":0,"id_pays":248}},{"type":"Feature","id":130,"geometry":{"type":"Point","coordinates":[-9.45194295370419,29.4549542434438]},"properties":{"OBJECTID":130,"objectid_1":0,"nom_barrag":"SIDI EL MAHJOUB","nom_oued":"Ifrane","capacite_i":0,"hauteur":22,"annee_mise":0,"id_pays":248}},{"type":"Feature","id":131,"geometry":{"type":"Point","coordinates":[-7.29908015242694,30.6202095938978]},"properties":{"OBJECTID":131,"objectid_1":0,"nom_barrag":"Taghdout","nom_oued":"Amra","capacite_i":3,"hauteur":26,"annee_mise":1956,"id_pays":248}},{"type":"Feature","id":132,"geometry":{"type":"Point","coordinates":[-12.0548876409517,27.6374890423855]},"properties":{"OBJECTID":132,"objectid_1":0,"nom_barrag":"Saquia  Al  Hamra","nom_oued":"Saq.  Al  Hamra","capacite_i":110,"hauteur":16,"annee_mise":1995,"id_pays":248}},{"type":"Feature","id":133,"geometry":{"type":"Point","coordinates":[-10.985235441862,28.3106818641768]},"properties":{"OBJECTID":133,"objectid_1":0,"nom_barrag":"OUIN KARA","nom_oued":" ","capacite_i":0,"hauteur":16,"annee_mise":2005,"id_pays":248}},{"type":"Feature","id":134,"geometry":{"type":"Point","coordinates":[-11.0863651304463,28.1899571766825]},"properties":{"OBJECTID":134,"objectid_1":0,"nom_barrag":"KHENG MESSAOUED","nom_oued":" ","capacite_i":0,"hauteur":24,"annee_mise":2005,"id_pays":248}},{"type":"Feature","id":135,"geometry":{"type":"Point","coordinates":[-5.42642243414787,33.6013365521403]},"properties":{"OBJECTID":135,"objectid_1":0,"nom_barrag":"Aman  Seyernine","nom_oued":"Dfali","capacite_i":0.300000011921,"hauteur":16,"annee_mise":1987,"id_pays":248}}]}