{
"type": "FeatureCollection",
"name": "barrages_within_action_zone",
"crs": { "type": "name", "properties": { "name": "urn:ogc:def:crs:OGC:1.3:CRS84" } },
"features": [
{ "type": "Feature", "properties": { "OBJECTID": 45, "objectid_1": 0, "nom_barrag": "Hammou   Ourzag", "nom_oued": "Ham.   Ourzag", "capacite_i": 1.6000000238400001, "hauteur": 14.0, "annee_mise": 1986, "id_pays": 248 }, "geometry": { "type": "Point", "coordinates": [ -2.56791152489677, 32.7316282061769 ] } },
{ "type": "Feature", "properties": { "OBJECTID": 93, "objectid_1": 0, "nom_barrag": "SEHB EL  KHYAT", "nom_oued": " ", "capacite_i": 0.0, "hauteur": 17.0, "annee_mise": 2003, "id_pays": 248 }, "geometry": { "type": "Point", "coordinates": [ -1.98781173422401, 32.7406465860713 ] } },
{ "type": "Feature", "properties": { "OBJECTID": 94, "objectid_1": 0, "nom_barrag": "ROKNET ENNAM", "nom_oued": " ", "capacite_i": 0.0, "hauteur": 18.0, "annee_mise": 2003, "id_pays": 248 }, "geometry": { "type": "Point", "coordinates": [ -1.69467970890128, 32.453927442797401 ] } },
{ "type": "Feature", "properties": { "OBJECTID": 95, "objectid_1": 0, "nom_barrag": "OUED ENNAMOUS", "nom_oued": " ", "capacite_i": 0.0, "hauteur": 18.0, "annee_mise": 2003, "id_pays": 248 }, "geometry": { "type": "Point", "coordinates": [ -2.24205680627642, 33.3494326770765 ] } },
{ "type": "Feature", "properties": { "OBJECTID": 110, "objectid_1": 0, "nom_barrag": "SFEISSIF", "nom_oued": "Safsaf", "capacite_i": 0.0, "hauteur": 28.0, "annee_mise": 0, "id_pays": 248 }, "geometry": { "type": "Point", "coordinates": [ -1.34565632298074, 32.3361751801406 ] } },
{ "type": "Feature", "properties": { "OBJECTID": 48, "objectid_1": 0, "nom_barrag": "Imin  Lhad", "nom_oued": "Zeddir", "capacite_i": 0.40000000596000002, "hauteur": 23.0, "annee_mise": 1987, "id_pays": 248 }, "geometry": { "type": "Point", "coordinates": [ -9.623792667797201, 31.246365073089802 ] } },
{ "type": "Feature", "properties": { "OBJECTID": 98, "objectid_1": 0, "nom_barrag": "S.M.B SLIMANE JAZOULI", "nom_oued": " ", "capacite_i": 0.0, "hauteur": 60.0, "annee_mise": 2005, "id_pays": 248 }, "geometry": { "type": "Point", "coordinates": [ -9.6418569648269, 31.094680537077299 ] } },
{ "type": "Feature", "properties": { "OBJECTID": 18, "objectid_1": 0, "nom_barrag": "Hassan Addakhil", "nom_oued": "Ziz", "capacite_i": 157.0, "hauteur": 85.0, "annee_mise": 1971, "id_pays": 248, "lmadialna": "TRUE" }, "geometry": { "type": "Point", "coordinates": [ -4.46068837057169, 31.9938560116458 ] } },
{ "type": "Feature", "properties": { "OBJECTID": 42, "objectid_1": 0, "nom_barrag": "Akkrouz", "nom_oued": "N'oukrouz", "capacite_i": 0.60000002384200002, "hauteur": 24.0, "annee_mise": 1986, "id_pays": 248 }, "geometry": { "type": "Point", "coordinates": [ -4.87902973083726, 31.467637808138502 ] } },
{ "type": "Feature", "properties": { "OBJECTID": 68, "objectid_1": 0, "nom_barrag": "Douiss", "nom_oued": "Douiss", "capacite_i": 0.89999997615799998, "hauteur": 21.0, "annee_mise": 1992, "id_pays": 248 }, "geometry": { "type": "Point", "coordinates": [ -3.51142828158976, 31.911291107198998 ] } },
{ "type": "Feature", "properties": { "OBJECTID": 44, "objectid_1": 0, "nom_barrag": "Boutaaricht", "nom_oued": "Boutaaricht", "capacite_i": 0.69999998807899999, "hauteur": 18.0, "annee_mise": 1986, "id_pays": 248 }, "geometry": { "type": "Point", "coordinates": [ -4.09705573723232, 32.310448556755702 ] } },
{ "type": "Feature", "properties": { "OBJECTID": 56, "objectid_1": 0, "nom_barrag": "Itzar", "nom_oued": "Tifitoucht", "capacite_i": 0.69999998807899999, "hauteur": 30.0, "annee_mise": 1989, "id_pays": 248 }, "geometry": { "type": "Point", "coordinates": [ -5.08193360984808, 32.911842332957498 ] } },
{ "type": "Feature", "properties": { "OBJECTID": 96, "objectid_1": 0, "nom_barrag": "Hassan II (Ex Sidi Said)", "nom_oued": "Moulouya", "capacite_i": 200.0, "hauteur": 124.0, "annee_mise": 2003, "id_pays": 248, "lmadialna": "TRUE" }, "geometry": { "type": "Point", "coordinates": [ -4.76785793799326, 32.792070796430302 ] } },
{ "type": "Feature", "properties": { "OBJECTID": 111, "objectid_1": 0, "nom_barrag": "TATIOUINE", "nom_oued": "Tatiouine", "capacite_i": 0.0, "hauteur": 18.0, "annee_mise": 0, "id_pays": 248 }, "geometry": { "type": "Point", "coordinates": [ -4.76784038682422, 32.5854320122777 ] } },
{ "type": "Feature", "properties": { "OBJECTID": 115, "objectid_1": 0, "nom_barrag": "Mansour Eddahbi", "nom_oued": "Draa", "capacite_i": 189.0, "hauteur": 70.0, "annee_mise": 1972, "id_pays": 248, "lmadialna": "TRUE" }, "geometry": { "type": "Point", "coordinates": [ -6.75990542519503, 30.912672861763301 ] } },
{ "type": "Feature", "properties": { "OBJECTID": 131, "objectid_1": 0, "nom_barrag": "Taghdout", "nom_oued": "Amra", "capacite_i": 3.0, "hauteur": 26.0, "annee_mise": 1956, "id_pays": 248 }, "geometry": { "type": "Point", "coordinates": [ -7.29908015242694, 30.620209593897801 ] } },
{ "type": "Feature", "properties": { "OBJECTID": 43, "objectid_1": 0, "nom_barrag": "Achbarou", "nom_oued": "Gaiz", "capacite_i": 1.0, "hauteur": 20.0, "annee_mise": 1986, "id_pays": 248 }, "geometry": { "type": "Point", "coordinates": [ -5.09201830060391, 31.154760380387401 ] } },
{ "type": "Feature", "properties": { "OBJECTID": 121, "objectid_1": 0, "nom_barrag": "Akka  N'oussikis", "nom_oued": "N'oussikiss", "capacite_i": 1.0, "hauteur": 42.0, "annee_mise": 1986, "id_pays": 248 }, "geometry": { "type": "Point", "coordinates": [ -5.9078214207218, 31.6977374223443 ] } },
{ "type": "Feature", "properties": { "OBJECTID": 112, "objectid_1": 0, "nom_barrag": "TAKHZIRT", "nom_oued": "Takhzirt", "capacite_i": 0.0, "hauteur": 22.0, "annee_mise": 0, "id_pays": 248 }, "geometry": { "type": "Point", "coordinates": [ -6.31649793063485, 30.8092766819735 ] } },
{ "type": "Feature", "properties": { "OBJECTID": 120, "objectid_1": 0, "nom_barrag": "Assif  Taguenza", "nom_oued": "Taguenza", "capacite_i": 0.40000000596000002, "hauteur": 24.0, "annee_mise": 1986, "id_pays": 248 }, "geometry": { "type": "Point", "coordinates": [ -9.393639102362499, 30.482661868950199 ] } },
{ "type": "Feature", "properties": { "OBJECTID": 127, "objectid_1": 0, "nom_barrag": "Moulay   Abdellah", "nom_oued": "Tamri", "capacite_i": 68.0, "hauteur": 70.0, "annee_mise": 2002, "id_pays": 248, "lmadialna": "TRUE" }, "geometry": { "type": "Point", "coordinates": [ -9.685627045251749, 30.761978895709699 ] } },
{ "type": "Feature", "properties": { "OBJECTID": 118, "objectid_1": 0, "nom_barrag": "Sfa", "nom_oued": "Chtouka Ait Baha", "capacite_i": 0.60000002384200002, "hauteur": 16.0, "annee_mise": 1985, "id_pays": 248 }, "geometry": { "type": "Point", "coordinates": [ -9.17153901980976, 30.1902630599924 ] } },
{ "type": "Feature", "properties": { "OBJECTID": 128, "objectid_1": 0, "nom_barrag": "AHL SOUSS", "nom_oued": " ", "capacite_i": 0.0, "hauteur": 49.0, "annee_mise": 2004, "id_pays": 248 }, "geometry": { "type": "Point", "coordinates": [ -9.12830649924541, 30.053815482898401 ] } },
{ "type": "Feature", "properties": { "OBJECTID": 117, "objectid_1": 0, "nom_barrag": "Abdelmoumen", "nom_oued": "Issen", "capacite_i": 63.0, "hauteur": 94.0, "annee_mise": 1981, "id_pays": 248, "lmadialna": "TRUE" }, "geometry": { "type": "Point", "coordinates": [ -9.19941430612516, 30.6748489588126 ] } },
{ "type": "Feature", "properties": { "OBJECTID": 119, "objectid_1": 0, "nom_barrag": "Dkhila", "nom_oued": "Issen", "capacite_i": 0.69999998807899999, "hauteur": 32.0, "annee_mise": 1986, "id_pays": 248 }, "geometry": { "type": "Point", "coordinates": [ -9.285405879377659, 30.569466047120599 ] } },
{ "type": "Feature", "properties": { "OBJECTID": 122, "objectid_1": 0, "nom_barrag": "Aoulouz", "nom_oued": "Souss", "capacite_i": 110.0, "hauteur": 79.0, "annee_mise": 1991, "id_pays": 248 }, "geometry": { "type": "Point", "coordinates": [ -8.138256975378971, 30.6932576566157 ] } },
{ "type": "Feature", "properties": { "OBJECTID": 125, "objectid_1": 0, "nom_barrag": "Imin  El   Kheng", "nom_oued": "Berhil", "capacite_i": 12.0, "hauteur": 39.0, "annee_mise": 1993, "id_pays": 248 }, "geometry": { "type": "Point", "coordinates": [ -8.532194336199501, 30.667295490894301 ] } },
{ "type": "Feature", "properties": { "OBJECTID": 126, "objectid_1": 0, "nom_barrag": "Mokhtar  Soussi", "nom_oued": "Choukoukane", "capacite_i": 50.0, "hauteur": 60.0, "annee_mise": 2001, "id_pays": 248 }, "geometry": { "type": "Point", "coordinates": [ -7.98025531083374, 30.734700918412798 ] } },
{ "type": "Feature", "properties": { "OBJECTID": 116, "objectid_1": 0, "nom_barrag": "Youssef Ben Tachfine", "nom_oued": "Massa", "capacite_i": 136.0, "hauteur": 85.0, "annee_mise": 1972, "id_pays": 248, "lmadialna": "TRUE" }, "geometry": { "type": "Point", "coordinates": [ -9.49465435311572, 29.8459949464098 ] } },
{ "type": "Feature", "properties": { "OBJECTID": 130, "objectid_1": 0, "nom_barrag": "SIDI EL MAHJOUB", "nom_oued": "Ifrane", "capacite_i": 0.0, "hauteur": 22.0, "annee_mise": 0, "id_pays": 248 }, "geometry": { "type": "Point", "coordinates": [ -9.45194295370419, 29.454954243443801 ] } },
{ "type": "Feature", "properties": { "OBJECTID": 129, "objectid_1": 0, "nom_barrag": "TOUIZGUI RAMZ", "nom_oued": " ", "capacite_i": 0.0, "hauteur": 18.0, "annee_mise": 0, "id_pays": 248 }, "geometry": { "type": "Point", "coordinates": [ -9.217380355818589, 28.4140789585772 ] } },
{ "type": "Feature", "properties": { "OBJECTID": 123, "objectid_1": 0, "nom_barrag": "Imaouene", "nom_oued": "Imaouene", "capacite_i": 0.20000000298000001, "hauteur": 23.0, "annee_mise": 1992, "id_pays": 248 }, "geometry": { "type": "Point", "coordinates": [ -9.71308505333241, 29.2233009137063 ] } },
{ "type": "Feature", "properties": { "OBJECTID": 124, "objectid_1": 0, "nom_barrag": "Agherghis", "nom_oued": "Assif Neffella", "capacite_i": 0.30000001192100001, "hauteur": 24.0, "annee_mise": 1992, "id_pays": 248 }, "geometry": { "type": "Point", "coordinates": [ -9.72795888759242, 29.229087485399301 ] } }
]
}
